[{"OBJECT_NAME":"CORVUS BC1","OBJECT_ID":"2017-042Y","EPOCH":"2026-03-09T22:24:00.973440","MEAN_MOTION":15.05817893,"ECCENTRICITY":0.00132832,"INCLINATION":97.3986,"RA_OF_ASC_NODE":234.9925,"ARG_OF_PERICENTER":71.1953,"MEAN_ANOMALY":289.0714,"EPHEMERIS_TYPE":0,"CLASSIFICATION_TYPE":"U","NORAD_CAT_ID":42847,"ELEMENT_SET_NO":999,"REV_AT_EPOCH":47215,"BSTAR":0.00033801202,"MEAN_MOTION_DOT":4.853e-5,"MEAN_MOTION_DDOT":0},{"OBJECT_NAME":"STARLINK-3129","OBJECT_ID":"2021-104AX","EPOCH":"2026-03-09T16:20:11.975424","MEAN_MOTION":15.08844076,"ECCENTRICITY":0.00011327,"INCLINATION":53.2176,"RA_OF_ASC_NODE":219.2491,"ARG_OF_PERICENTER":81.7118,"MEAN_ANOMALY":278.4002,"EPHEMERIS_TYPE":0,"CLASSIFICATION_TYPE":"U","NORAD_CAT_ID":49453,"ELEMENT_SET_NO":999,"REV_AT_EPOCH":23877,"BSTAR":-3.1337388e-5,"MEAN_MOTION_DOT":-7.87e-6,"MEAN_MOTION_DDOT":0}]
